<?xml version="1.0" encoding="UTF-8"?>
<!--
Frankreich, Landstrasse: zwei Anlagen 600 m auseinander, deren Zonen zu einer zusammengefasst sind. Erwartet genau EINE Ansage für beide.

Synthetisch erzeugt von src/replay/make-fixtures.ts — nicht von Hand ändern,
sondern den Generator anpassen und neu erzeugen.
-->
<gpx version="1.1" creator="static-blitzerwarner-fixtures">
  <trk>
    <trkseg>
      <trkpt lat="48.573400" lon="7.752100">
        <time>2026-07-29T10:00:00.000Z</time>
        <speed>25.00</speed>
        <course>90.0</course>
      </trkpt>
      <trkpt lat="48.573400" lon="7.752440">
        <time>2026-07-29T10:00:01.000Z</time>
        <speed>25.00</speed>
        <course>90.0</course>
      </trkpt>
      <trkpt lat="48.573400" lon="7.752780">
        <time>2026-07-29T10:00:02.000Z</time>
        <speed>25.00</speed>
        <course>90.0</course>
      </trkpt>
      <trkpt lat="48.573400" lon="7.753119">
        <time>2026-07-29T10:00:03.000Z</time>
        <speed>25.00</speed>
        <course>90.0</course>
      </trkpt>
      <trkpt lat="48.573400" lon="7.753459">
        <time>2026-07-29T10:00:04.000Z</time>
        <speed>25.00</speed>
        <course>90.0</course>
      </trkpt>
      <trkpt lat="48.573400" lon="7.753799">
        <time>2026-07-29T10:00:05.000Z</time>
        <speed>25.00</speed>
        <course>90.0</course>
      </trkpt>
      <trkpt lat="48.573400" lon="7.754139">
        <time>2026-07-29T10:00:06.000Z</time>
        <speed>25.00</speed>
        <course>90.0</course>
      </trkpt>
      <trkpt lat="48.573400" lon="7.754479">
        <time>2026-07-29T10:00:07.000Z</time>
        <speed>25.00</speed>
        <course>90.0</course>
      </trkpt>
      <trkpt lat="48.573400" lon="7.754818">
        <time>2026-07-29T10:00:08.000Z</time>
        <speed>25.00</speed>
        <course>90.0</course>
      </trkpt>
      <trkpt lat="48.573400" lon="7.755158">
        <time>2026-07-29T10:00:09.000Z</time>
        <speed>25.00</speed>
        <course>90.0</course>
      </trkpt>
      <trkpt lat="48.573400" lon="7.755498">
        <time>2026-07-29T10:00:10.000Z</time>
        <speed>25.00</speed>
        <course>90.0</course>
      </trkpt>
      <trkpt lat="48.573400" lon="7.755838">
        <time>2026-07-29T10:00:11.000Z</time>
        <speed>25.00</speed>
        <course>90.0</course>
      </trkpt>
      <trkpt lat="48.573400" lon="7.756178">
        <time>2026-07-29T10:00:12.000Z</time>
        <speed>25.00</speed>
        <course>90.0</course>
      </trkpt>
      <trkpt lat="48.573400" lon="7.756517">
        <time>2026-07-29T10:00:13.000Z</time>
        <speed>25.00</speed>
        <course>90.0</course>
      </trkpt>
      <trkpt lat="48.573400" lon="7.756857">
        <time>2026-07-29T10:00:14.000Z</time>
        <speed>25.00</speed>
        <course>90.0</course>
      </trkpt>
      <trkpt lat="48.573400" lon="7.757197">
        <time>2026-07-29T10:00:15.000Z</time>
        <speed>25.00</speed>
        <course>90.0</course>
      </trkpt>
      <trkpt lat="48.573400" lon="7.757537">
        <time>2026-07-29T10:00:16.000Z</time>
        <speed>25.00</speed>
        <course>90.0</course>
      </trkpt>
      <trkpt lat="48.573400" lon="7.757877">
        <time>2026-07-29T10:00:17.000Z</time>
        <speed>25.00</speed>
        <course>90.0</course>
      </trkpt>
      <trkpt lat="48.573400" lon="7.758216">
        <time>2026-07-29T10:00:18.000Z</time>
        <speed>25.00</speed>
        <course>90.0</course>
      </trkpt>
      <trkpt lat="48.573400" lon="7.758556">
        <time>2026-07-29T10:00:19.000Z</time>
        <speed>25.00</speed>
        <course>90.0</course>
      </trkpt>
      <trkpt lat="48.573400" lon="7.758896">
        <time>2026-07-29T10:00:20.000Z</time>
        <speed>25.00</speed>
        <course>90.0</course>
      </trkpt>
      <trkpt lat="48.573400" lon="7.759236">
        <time>2026-07-29T10:00:21.000Z</time>
        <speed>25.00</speed>
        <course>90.0</course>
      </trkpt>
      <trkpt lat="48.573400" lon="7.759576">
        <time>2026-07-29T10:00:22.000Z</time>
        <speed>25.00</speed>
        <course>90.0</course>
      </trkpt>
      <trkpt lat="48.573400" lon="7.759915">
        <time>2026-07-29T10:00:23.000Z</time>
        <speed>25.00</speed>
        <course>90.0</course>
      </trkpt>
      <trkpt lat="48.573400" lon="7.760255">
        <time>2026-07-29T10:00:24.000Z</time>
        <speed>25.00</speed>
        <course>90.0</course>
      </trkpt>
      <trkpt lat="48.573400" lon="7.760595">
        <time>2026-07-29T10:00:25.000Z</time>
        <speed>25.00</speed>
        <course>90.0</course>
      </trkpt>
      <trkpt lat="48.573400" lon="7.760935">
        <time>2026-07-29T10:00:26.000Z</time>
        <speed>25.00</speed>
        <course>90.0</course>
      </trkpt>
      <trkpt lat="48.573400" lon="7.761275">
        <time>2026-07-29T10:00:27.000Z</time>
        <speed>25.00</speed>
        <course>90.0</course>
      </trkpt>
      <trkpt lat="48.573400" lon="7.761614">
        <time>2026-07-29T10:00:28.000Z</time>
        <speed>25.00</speed>
        <course>90.0</course>
      </trkpt>
      <trkpt lat="48.573400" lon="7.761954">
        <time>2026-07-29T10:00:29.000Z</time>
        <speed>25.00</speed>
        <course>90.0</course>
      </trkpt>
      <trkpt lat="48.573400" lon="7.762294">
        <time>2026-07-29T10:00:30.000Z</time>
        <speed>25.00</speed>
        <course>90.0</course>
      </trkpt>
      <trkpt lat="48.573400" lon="7.762634">
        <time>2026-07-29T10:00:31.000Z</time>
        <speed>25.00</speed>
        <course>90.0</course>
      </trkpt>
      <trkpt lat="48.573399" lon="7.762974">
        <time>2026-07-29T10:00:32.000Z</time>
        <speed>25.00</speed>
        <course>90.0</course>
      </trkpt>
      <trkpt lat="48.573399" lon="7.763313">
        <time>2026-07-29T10:00:33.000Z</time>
        <speed>25.00</speed>
        <course>90.0</course>
      </trkpt>
      <trkpt lat="48.573399" lon="7.763653">
        <time>2026-07-29T10:00:34.000Z</time>
        <speed>25.00</speed>
        <course>90.0</course>
      </trkpt>
      <trkpt lat="48.573399" lon="7.763993">
        <time>2026-07-29T10:00:35.000Z</time>
        <speed>25.00</speed>
        <course>90.0</course>
      </trkpt>
      <trkpt lat="48.573399" lon="7.764333">
        <time>2026-07-29T10:00:36.000Z</time>
        <speed>25.00</speed>
        <course>90.0</course>
      </trkpt>
      <trkpt lat="48.573399" lon="7.764673">
        <time>2026-07-29T10:00:37.000Z</time>
        <speed>25.00</speed>
        <course>90.0</course>
      </trkpt>
      <trkpt lat="48.573399" lon="7.765012">
        <time>2026-07-29T10:00:38.000Z</time>
        <speed>25.00</speed>
        <course>90.0</course>
      </trkpt>
      <trkpt lat="48.573399" lon="7.765352">
        <time>2026-07-29T10:00:39.000Z</time>
        <speed>25.00</speed>
        <course>90.0</course>
      </trkpt>
      <trkpt lat="48.573399" lon="7.765692">
        <time>2026-07-29T10:00:40.000Z</time>
        <speed>25.00</speed>
        <course>90.0</course>
      </trkpt>
      <trkpt lat="48.573399" lon="7.766032">
        <time>2026-07-29T10:00:41.000Z</time>
        <speed>25.00</speed>
        <course>90.0</course>
      </trkpt>
      <trkpt lat="48.573399" lon="7.766371">
        <time>2026-07-29T10:00:42.000Z</time>
        <speed>25.00</speed>
        <course>90.0</course>
      </trkpt>
      <trkpt lat="48.573399" lon="7.766711">
        <time>2026-07-29T10:00:43.000Z</time>
        <speed>25.00</speed>
        <course>90.0</course>
      </trkpt>
      <trkpt lat="48.573399" lon="7.767051">
        <time>2026-07-29T10:00:44.000Z</time>
        <speed>25.00</speed>
        <course>90.0</course>
      </trkpt>
      <trkpt lat="48.573399" lon="7.767391">
        <time>2026-07-29T10:00:45.000Z</time>
        <speed>25.00</speed>
        <course>90.0</course>
      </trkpt>
      <trkpt lat="48.573399" lon="7.767731">
        <time>2026-07-29T10:00:46.000Z</time>
        <speed>25.00</speed>
        <course>90.0</course>
      </trkpt>
      <trkpt lat="48.573399" lon="7.768070">
        <time>2026-07-29T10:00:47.000Z</time>
        <speed>25.00</speed>
        <course>90.0</course>
      </trkpt>
      <trkpt lat="48.573399" lon="7.768410">
        <time>2026-07-29T10:00:48.000Z</time>
        <speed>25.00</speed>
        <course>90.0</course>
      </trkpt>
      <trkpt lat="48.573399" lon="7.768750">
        <time>2026-07-29T10:00:49.000Z</time>
        <speed>25.00</speed>
        <course>90.0</course>
      </trkpt>
      <trkpt lat="48.573399" lon="7.769090">
        <time>2026-07-29T10:00:50.000Z</time>
        <speed>25.00</speed>
        <course>90.0</course>
      </trkpt>
      <trkpt lat="48.573399" lon="7.769430">
        <time>2026-07-29T10:00:51.000Z</time>
        <speed>25.00</speed>
        <course>90.0</course>
      </trkpt>
      <trkpt lat="48.573399" lon="7.769769">
        <time>2026-07-29T10:00:52.000Z</time>
        <speed>25.00</speed>
        <course>90.0</course>
      </trkpt>
      <trkpt lat="48.573399" lon="7.770109">
        <time>2026-07-29T10:00:53.000Z</time>
        <speed>25.00</speed>
        <course>90.0</course>
      </trkpt>
      <trkpt lat="48.573399" lon="7.770449">
        <time>2026-07-29T10:00:54.000Z</time>
        <speed>25.00</speed>
        <course>90.0</course>
      </trkpt>
      <trkpt lat="48.573398" lon="7.770789">
        <time>2026-07-29T10:00:55.000Z</time>
        <speed>25.00</speed>
        <course>90.0</course>
      </trkpt>
      <trkpt lat="48.573398" lon="7.771129">
        <time>2026-07-29T10:00:56.000Z</time>
        <speed>25.00</speed>
        <course>90.0</course>
      </trkpt>
      <trkpt lat="48.573398" lon="7.771468">
        <time>2026-07-29T10:00:57.000Z</time>
        <speed>25.00</speed>
        <course>90.0</course>
      </trkpt>
      <trkpt lat="48.573398" lon="7.771808">
        <time>2026-07-29T10:00:58.000Z</time>
        <speed>25.00</speed>
        <course>90.0</course>
      </trkpt>
      <trkpt lat="48.573398" lon="7.772148">
        <time>2026-07-29T10:00:59.000Z</time>
        <speed>25.00</speed>
        <course>90.0</course>
      </trkpt>
      <trkpt lat="48.573398" lon="7.772488">
        <time>2026-07-29T10:01:00.000Z</time>
        <speed>25.00</speed>
        <course>90.0</course>
      </trkpt>
      <trkpt lat="48.573398" lon="7.772828">
        <time>2026-07-29T10:01:01.000Z</time>
        <speed>25.00</speed>
        <course>90.0</course>
      </trkpt>
      <trkpt lat="48.573398" lon="7.773167">
        <time>2026-07-29T10:01:02.000Z</time>
        <speed>25.00</speed>
        <course>90.0</course>
      </trkpt>
      <trkpt lat="48.573398" lon="7.773507">
        <time>2026-07-29T10:01:03.000Z</time>
        <speed>25.00</speed>
        <course>90.0</course>
      </trkpt>
      <trkpt lat="48.573398" lon="7.773847">
        <time>2026-07-29T10:01:04.000Z</time>
        <speed>25.00</speed>
        <course>90.0</course>
      </trkpt>
      <trkpt lat="48.573398" lon="7.774187">
        <time>2026-07-29T10:01:05.000Z</time>
        <speed>25.00</speed>
        <course>90.0</course>
      </trkpt>
      <trkpt lat="48.573398" lon="7.774527">
        <time>2026-07-29T10:01:06.000Z</time>
        <speed>25.00</speed>
        <course>90.0</course>
      </trkpt>
      <trkpt lat="48.573398" lon="7.774866">
        <time>2026-07-29T10:01:07.000Z</time>
        <speed>25.00</speed>
        <course>90.0</course>
      </trkpt>
      <trkpt lat="48.573398" lon="7.775206">
        <time>2026-07-29T10:01:08.000Z</time>
        <speed>25.00</speed>
        <course>90.0</course>
      </trkpt>
      <trkpt lat="48.573398" lon="7.775546">
        <time>2026-07-29T10:01:09.000Z</time>
        <speed>25.00</speed>
        <course>90.0</course>
      </trkpt>
      <trkpt lat="48.573398" lon="7.775886">
        <time>2026-07-29T10:01:10.000Z</time>
        <speed>25.00</speed>
        <course>90.0</course>
      </trkpt>
      <trkpt lat="48.573397" lon="7.776226">
        <time>2026-07-29T10:01:11.000Z</time>
        <speed>25.00</speed>
        <course>90.0</course>
      </trkpt>
      <trkpt lat="48.573397" lon="7.776565">
        <time>2026-07-29T10:01:12.000Z</time>
        <speed>25.00</speed>
        <course>90.0</course>
      </trkpt>
      <trkpt lat="48.573397" lon="7.776905">
        <time>2026-07-29T10:01:13.000Z</time>
        <speed>25.00</speed>
        <course>90.0</course>
      </trkpt>
      <trkpt lat="48.573397" lon="7.777245">
        <time>2026-07-29T10:01:14.000Z</time>
        <speed>25.00</speed>
        <course>90.0</course>
      </trkpt>
      <trkpt lat="48.573397" lon="7.777585">
        <time>2026-07-29T10:01:15.000Z</time>
        <speed>25.00</speed>
        <course>90.0</course>
      </trkpt>
      <trkpt lat="48.573397" lon="7.777925">
        <time>2026-07-29T10:01:16.000Z</time>
        <speed>25.00</speed>
        <course>90.0</course>
      </trkpt>
      <trkpt lat="48.573397" lon="7.778264">
        <time>2026-07-29T10:01:17.000Z</time>
        <speed>25.00</speed>
        <course>90.0</course>
      </trkpt>
      <trkpt lat="48.573397" lon="7.778604">
        <time>2026-07-29T10:01:18.000Z</time>
        <speed>25.00</speed>
        <course>90.0</course>
      </trkpt>
      <trkpt lat="48.573397" lon="7.778944">
        <time>2026-07-29T10:01:19.000Z</time>
        <speed>25.00</speed>
        <course>90.0</course>
      </trkpt>
      <trkpt lat="48.573397" lon="7.779284">
        <time>2026-07-29T10:01:20.000Z</time>
        <speed>25.00</speed>
        <course>90.0</course>
      </trkpt>
      <trkpt lat="48.573397" lon="7.779624">
        <time>2026-07-29T10:01:21.000Z</time>
        <speed>25.00</speed>
        <course>90.0</course>
      </trkpt>
      <trkpt lat="48.573397" lon="7.779963">
        <time>2026-07-29T10:01:22.000Z</time>
        <speed>25.00</speed>
        <course>90.0</course>
      </trkpt>
      <trkpt lat="48.573397" lon="7.780303">
        <time>2026-07-29T10:01:23.000Z</time>
        <speed>25.00</speed>
        <course>90.0</course>
      </trkpt>
      <trkpt lat="48.573396" lon="7.780643">
        <time>2026-07-29T10:01:24.000Z</time>
        <speed>25.00</speed>
        <course>90.0</course>
      </trkpt>
      <trkpt lat="48.573396" lon="7.780983">
        <time>2026-07-29T10:01:25.000Z</time>
        <speed>25.00</speed>
        <course>90.0</course>
      </trkpt>
      <trkpt lat="48.573396" lon="7.781323">
        <time>2026-07-29T10:01:26.000Z</time>
        <speed>25.00</speed>
        <course>90.0</course>
      </trkpt>
      <trkpt lat="48.573396" lon="7.781662">
        <time>2026-07-29T10:01:27.000Z</time>
        <speed>25.00</speed>
        <course>90.0</course>
      </trkpt>
      <trkpt lat="48.573396" lon="7.782002">
        <time>2026-07-29T10:01:28.000Z</time>
        <speed>25.00</speed>
        <course>90.0</course>
      </trkpt>
      <trkpt lat="48.573396" lon="7.782342">
        <time>2026-07-29T10:01:29.000Z</time>
        <speed>25.00</speed>
        <course>90.0</course>
      </trkpt>
      <trkpt lat="48.573396" lon="7.782682">
        <time>2026-07-29T10:01:30.000Z</time>
        <speed>25.00</speed>
        <course>90.0</course>
      </trkpt>
      <trkpt lat="48.573396" lon="7.783022">
        <time>2026-07-29T10:01:31.000Z</time>
        <speed>25.00</speed>
        <course>90.0</course>
      </trkpt>
      <trkpt lat="48.573396" lon="7.783361">
        <time>2026-07-29T10:01:32.000Z</time>
        <speed>25.00</speed>
        <course>90.0</course>
      </trkpt>
      <trkpt lat="48.573396" lon="7.783701">
        <time>2026-07-29T10:01:33.000Z</time>
        <speed>25.00</speed>
        <course>90.0</course>
      </trkpt>
      <trkpt lat="48.573396" lon="7.784041">
        <time>2026-07-29T10:01:34.000Z</time>
        <speed>25.00</speed>
        <course>90.0</course>
      </trkpt>
      <trkpt lat="48.573395" lon="7.784381">
        <time>2026-07-29T10:01:35.000Z</time>
        <speed>25.00</speed>
        <course>90.0</course>
      </trkpt>
      <trkpt lat="48.573395" lon="7.784721">
        <time>2026-07-29T10:01:36.000Z</time>
        <speed>25.00</speed>
        <course>90.0</course>
      </trkpt>
      <trkpt lat="48.573395" lon="7.785060">
        <time>2026-07-29T10:01:37.000Z</time>
        <speed>25.00</speed>
        <course>90.0</course>
      </trkpt>
      <trkpt lat="48.573395" lon="7.785400">
        <time>2026-07-29T10:01:38.000Z</time>
        <speed>25.00</speed>
        <course>90.0</course>
      </trkpt>
      <trkpt lat="48.573395" lon="7.785740">
        <time>2026-07-29T10:01:39.000Z</time>
        <speed>25.00</speed>
        <course>90.0</course>
      </trkpt>
      <trkpt lat="48.573395" lon="7.786080">
        <time>2026-07-29T10:01:40.000Z</time>
        <speed>25.00</speed>
        <course>90.0</course>
      </trkpt>
      <trkpt lat="48.573395" lon="7.786420">
        <time>2026-07-29T10:01:41.000Z</time>
        <speed>25.00</speed>
        <course>90.0</course>
      </trkpt>
      <trkpt lat="48.573395" lon="7.786759">
        <time>2026-07-29T10:01:42.000Z</time>
        <speed>25.00</speed>
        <course>90.0</course>
      </trkpt>
      <trkpt lat="48.573395" lon="7.787099">
        <time>2026-07-29T10:01:43.000Z</time>
        <speed>25.00</speed>
        <course>90.0</course>
      </trkpt>
      <trkpt lat="48.573395" lon="7.787439">
        <time>2026-07-29T10:01:44.000Z</time>
        <speed>25.00</speed>
        <course>90.0</course>
      </trkpt>
      <trkpt lat="48.573394" lon="7.787779">
        <time>2026-07-29T10:01:45.000Z</time>
        <speed>25.00</speed>
        <course>90.0</course>
      </trkpt>
      <trkpt lat="48.573394" lon="7.788119">
        <time>2026-07-29T10:01:46.000Z</time>
        <speed>25.00</speed>
        <course>90.0</course>
      </trkpt>
      <trkpt lat="48.573394" lon="7.788458">
        <time>2026-07-29T10:01:47.000Z</time>
        <speed>25.00</speed>
        <course>90.0</course>
      </trkpt>
      <trkpt lat="48.573394" lon="7.788798">
        <time>2026-07-29T10:01:48.000Z</time>
        <speed>25.00</speed>
        <course>90.0</course>
      </trkpt>
      <trkpt lat="48.573394" lon="7.789138">
        <time>2026-07-29T10:01:49.000Z</time>
        <speed>25.00</speed>
        <course>90.0</course>
      </trkpt>
      <trkpt lat="48.573394" lon="7.789478">
        <time>2026-07-29T10:01:50.000Z</time>
        <speed>25.00</speed>
        <course>90.0</course>
      </trkpt>
      <trkpt lat="48.573394" lon="7.789818">
        <time>2026-07-29T10:01:51.000Z</time>
        <speed>25.00</speed>
        <course>90.0</course>
      </trkpt>
      <trkpt lat="48.573394" lon="7.790157">
        <time>2026-07-29T10:01:52.000Z</time>
        <speed>25.00</speed>
        <course>90.0</course>
      </trkpt>
      <trkpt lat="48.573394" lon="7.790497">
        <time>2026-07-29T10:01:53.000Z</time>
        <speed>25.00</speed>
        <course>90.0</course>
      </trkpt>
      <trkpt lat="48.573394" lon="7.790837">
        <time>2026-07-29T10:01:54.000Z</time>
        <speed>25.00</speed>
        <course>90.0</course>
      </trkpt>
      <trkpt lat="48.573393" lon="7.791177">
        <time>2026-07-29T10:01:55.000Z</time>
        <speed>25.00</speed>
        <course>90.0</course>
      </trkpt>
      <trkpt lat="48.573393" lon="7.791517">
        <time>2026-07-29T10:01:56.000Z</time>
        <speed>25.00</speed>
        <course>90.0</course>
      </trkpt>
      <trkpt lat="48.573393" lon="7.791856">
        <time>2026-07-29T10:01:57.000Z</time>
        <speed>25.00</speed>
        <course>90.0</course>
      </trkpt>
      <trkpt lat="48.573393" lon="7.792196">
        <time>2026-07-29T10:01:58.000Z</time>
        <speed>25.00</speed>
        <course>90.0</course>
      </trkpt>
      <trkpt lat="48.573393" lon="7.792536">
        <time>2026-07-29T10:01:59.000Z</time>
        <speed>25.00</speed>
        <course>90.0</course>
      </trkpt>
      <trkpt lat="48.573393" lon="7.792876">
        <time>2026-07-29T10:02:00.000Z</time>
        <speed>25.00</speed>
        <course>90.0</course>
      </trkpt>
    </trkseg>
  </trk>
</gpx>
