<?xml version="1.0" encoding="UTF-8"?>
<!--
Langsame Annäherung unter 5 m/s und 60 s Stillstand an der Kamera — kein Dauerfeuer

Synthetisch erzeugt von src/replay/make-fixtures.ts — nicht von Hand ändern,
sondern den Generator anpassen und neu erzeugen.
-->
<gpx version="1.1" creator="static-blitzerwarner-fixtures">
  <trk>
    <trkseg>
      <trkpt lat="48.771200" lon="9.183400">
        <time>2026-07-29T10:00:00.000Z</time>
        <speed>3.00</speed>
        <course>90.0</course>
      </trkpt>
      <trkpt lat="48.771200" lon="9.183441">
        <time>2026-07-29T10:00:01.000Z</time>
        <speed>3.00</speed>
        <course>90.0</course>
      </trkpt>
      <trkpt lat="48.771200" lon="9.183482">
        <time>2026-07-29T10:00:02.000Z</time>
        <speed>3.00</speed>
        <course>90.0</course>
      </trkpt>
      <trkpt lat="48.771200" lon="9.183523">
        <time>2026-07-29T10:00:03.000Z</time>
        <speed>3.00</speed>
        <course>90.0</course>
      </trkpt>
      <trkpt lat="48.771200" lon="9.183564">
        <time>2026-07-29T10:00:04.000Z</time>
        <speed>3.00</speed>
        <course>90.0</course>
      </trkpt>
      <trkpt lat="48.771200" lon="9.183605">
        <time>2026-07-29T10:00:05.000Z</time>
        <speed>3.00</speed>
        <course>90.0</course>
      </trkpt>
      <trkpt lat="48.771200" lon="9.183646">
        <time>2026-07-29T10:00:06.000Z</time>
        <speed>3.00</speed>
        <course>90.0</course>
      </trkpt>
      <trkpt lat="48.771200" lon="9.183687">
        <time>2026-07-29T10:00:07.000Z</time>
        <speed>3.00</speed>
        <course>90.0</course>
      </trkpt>
      <trkpt lat="48.771200" lon="9.183727">
        <time>2026-07-29T10:00:08.000Z</time>
        <speed>3.00</speed>
        <course>90.0</course>
      </trkpt>
      <trkpt lat="48.771200" lon="9.183768">
        <time>2026-07-29T10:00:09.000Z</time>
        <speed>3.00</speed>
        <course>90.0</course>
      </trkpt>
      <trkpt lat="48.771200" lon="9.183809">
        <time>2026-07-29T10:00:10.000Z</time>
        <speed>3.00</speed>
        <course>90.0</course>
      </trkpt>
      <trkpt lat="48.771200" lon="9.183850">
        <time>2026-07-29T10:00:11.000Z</time>
        <speed>3.00</speed>
        <course>90.0</course>
      </trkpt>
      <trkpt lat="48.771200" lon="9.183891">
        <time>2026-07-29T10:00:12.000Z</time>
        <speed>3.00</speed>
        <course>90.0</course>
      </trkpt>
      <trkpt lat="48.771200" lon="9.183932">
        <time>2026-07-29T10:00:13.000Z</time>
        <speed>3.00</speed>
        <course>90.0</course>
      </trkpt>
      <trkpt lat="48.771200" lon="9.183973">
        <time>2026-07-29T10:00:14.000Z</time>
        <speed>3.00</speed>
        <course>90.0</course>
      </trkpt>
      <trkpt lat="48.771200" lon="9.184014">
        <time>2026-07-29T10:00:15.000Z</time>
        <speed>3.00</speed>
        <course>90.0</course>
      </trkpt>
      <trkpt lat="48.771200" lon="9.184055">
        <time>2026-07-29T10:00:16.000Z</time>
        <speed>3.00</speed>
        <course>90.0</course>
      </trkpt>
      <trkpt lat="48.771200" lon="9.184096">
        <time>2026-07-29T10:00:17.000Z</time>
        <speed>3.00</speed>
        <course>90.0</course>
      </trkpt>
      <trkpt lat="48.771200" lon="9.184137">
        <time>2026-07-29T10:00:18.000Z</time>
        <speed>3.00</speed>
        <course>90.0</course>
      </trkpt>
      <trkpt lat="48.771200" lon="9.184178">
        <time>2026-07-29T10:00:19.000Z</time>
        <speed>3.00</speed>
        <course>90.0</course>
      </trkpt>
      <trkpt lat="48.771200" lon="9.184219">
        <time>2026-07-29T10:00:20.000Z</time>
        <speed>3.00</speed>
        <course>90.0</course>
      </trkpt>
      <trkpt lat="48.771200" lon="9.184260">
        <time>2026-07-29T10:00:21.000Z</time>
        <speed>3.00</speed>
        <course>90.0</course>
      </trkpt>
      <trkpt lat="48.771200" lon="9.184301">
        <time>2026-07-29T10:00:22.000Z</time>
        <speed>3.00</speed>
        <course>90.0</course>
      </trkpt>
      <trkpt lat="48.771200" lon="9.184342">
        <time>2026-07-29T10:00:23.000Z</time>
        <speed>3.00</speed>
        <course>90.0</course>
      </trkpt>
      <trkpt lat="48.771200" lon="9.184382">
        <time>2026-07-29T10:00:24.000Z</time>
        <speed>3.00</speed>
        <course>90.0</course>
      </trkpt>
      <trkpt lat="48.771200" lon="9.184423">
        <time>2026-07-29T10:00:25.000Z</time>
        <speed>3.00</speed>
        <course>90.0</course>
      </trkpt>
      <trkpt lat="48.771200" lon="9.184464">
        <time>2026-07-29T10:00:26.000Z</time>
        <speed>3.00</speed>
        <course>90.0</course>
      </trkpt>
      <trkpt lat="48.771200" lon="9.184505">
        <time>2026-07-29T10:00:27.000Z</time>
        <speed>3.00</speed>
        <course>90.0</course>
      </trkpt>
      <trkpt lat="48.771200" lon="9.184546">
        <time>2026-07-29T10:00:28.000Z</time>
        <speed>3.00</speed>
        <course>90.0</course>
      </trkpt>
      <trkpt lat="48.771200" lon="9.184587">
        <time>2026-07-29T10:00:29.000Z</time>
        <speed>3.00</speed>
        <course>90.0</course>
      </trkpt>
      <trkpt lat="48.771200" lon="9.184628">
        <time>2026-07-29T10:00:30.000Z</time>
        <speed>3.00</speed>
        <course>90.0</course>
      </trkpt>
      <trkpt lat="48.771200" lon="9.184669">
        <time>2026-07-29T10:00:31.000Z</time>
        <speed>3.00</speed>
        <course>90.0</course>
      </trkpt>
      <trkpt lat="48.771200" lon="9.184710">
        <time>2026-07-29T10:00:32.000Z</time>
        <speed>3.00</speed>
        <course>90.0</course>
      </trkpt>
      <trkpt lat="48.771200" lon="9.184751">
        <time>2026-07-29T10:00:33.000Z</time>
        <speed>3.00</speed>
        <course>90.0</course>
      </trkpt>
      <trkpt lat="48.771200" lon="9.184792">
        <time>2026-07-29T10:00:34.000Z</time>
        <speed>3.00</speed>
        <course>90.0</course>
      </trkpt>
      <trkpt lat="48.771200" lon="9.184833">
        <time>2026-07-29T10:00:35.000Z</time>
        <speed>3.00</speed>
        <course>90.0</course>
      </trkpt>
      <trkpt lat="48.771200" lon="9.184874">
        <time>2026-07-29T10:00:36.000Z</time>
        <speed>3.00</speed>
        <course>90.0</course>
      </trkpt>
      <trkpt lat="48.771200" lon="9.184915">
        <time>2026-07-29T10:00:37.000Z</time>
        <speed>3.00</speed>
        <course>90.0</course>
      </trkpt>
      <trkpt lat="48.771200" lon="9.184956">
        <time>2026-07-29T10:00:38.000Z</time>
        <speed>3.00</speed>
        <course>90.0</course>
      </trkpt>
      <trkpt lat="48.771200" lon="9.184997">
        <time>2026-07-29T10:00:39.000Z</time>
        <speed>3.00</speed>
        <course>90.0</course>
      </trkpt>
      <trkpt lat="48.771200" lon="9.185037">
        <time>2026-07-29T10:00:40.000Z</time>
        <speed>3.00</speed>
        <course>90.0</course>
      </trkpt>
      <trkpt lat="48.771200" lon="9.185037">
        <time>2026-07-29T10:00:41.000Z</time>
        <speed>0.00</speed>
        <course>90.0</course>
      </trkpt>
      <trkpt lat="48.771200" lon="9.185037">
        <time>2026-07-29T10:00:42.000Z</time>
        <speed>0.00</speed>
        <course>90.0</course>
      </trkpt>
      <trkpt lat="48.771200" lon="9.185037">
        <time>2026-07-29T10:00:43.000Z</time>
        <speed>0.00</speed>
        <course>90.0</course>
      </trkpt>
      <trkpt lat="48.771200" lon="9.185037">
        <time>2026-07-29T10:00:44.000Z</time>
        <speed>0.00</speed>
        <course>90.0</course>
      </trkpt>
      <trkpt lat="48.771200" lon="9.185037">
        <time>2026-07-29T10:00:45.000Z</time>
        <speed>0.00</speed>
        <course>90.0</course>
      </trkpt>
      <trkpt lat="48.771200" lon="9.185037">
        <time>2026-07-29T10:00:46.000Z</time>
        <speed>0.00</speed>
        <course>90.0</course>
      </trkpt>
      <trkpt lat="48.771200" lon="9.185037">
        <time>2026-07-29T10:00:47.000Z</time>
        <speed>0.00</speed>
        <course>90.0</course>
      </trkpt>
      <trkpt lat="48.771200" lon="9.185037">
        <time>2026-07-29T10:00:48.000Z</time>
        <speed>0.00</speed>
        <course>90.0</course>
      </trkpt>
      <trkpt lat="48.771200" lon="9.185037">
        <time>2026-07-29T10:00:49.000Z</time>
        <speed>0.00</speed>
        <course>90.0</course>
      </trkpt>
      <trkpt lat="48.771200" lon="9.185037">
        <time>2026-07-29T10:00:50.000Z</time>
        <speed>0.00</speed>
        <course>90.0</course>
      </trkpt>
      <trkpt lat="48.771200" lon="9.185037">
        <time>2026-07-29T10:00:51.000Z</time>
        <speed>0.00</speed>
        <course>90.0</course>
      </trkpt>
      <trkpt lat="48.771200" lon="9.185037">
        <time>2026-07-29T10:00:52.000Z</time>
        <speed>0.00</speed>
        <course>90.0</course>
      </trkpt>
      <trkpt lat="48.771200" lon="9.185037">
        <time>2026-07-29T10:00:53.000Z</time>
        <speed>0.00</speed>
        <course>90.0</course>
      </trkpt>
      <trkpt lat="48.771200" lon="9.185037">
        <time>2026-07-29T10:00:54.000Z</time>
        <speed>0.00</speed>
        <course>90.0</course>
      </trkpt>
      <trkpt lat="48.771200" lon="9.185037">
        <time>2026-07-29T10:00:55.000Z</time>
        <speed>0.00</speed>
        <course>90.0</course>
      </trkpt>
      <trkpt lat="48.771200" lon="9.185037">
        <time>2026-07-29T10:00:56.000Z</time>
        <speed>0.00</speed>
        <course>90.0</course>
      </trkpt>
      <trkpt lat="48.771200" lon="9.185037">
        <time>2026-07-29T10:00:57.000Z</time>
        <speed>0.00</speed>
        <course>90.0</course>
      </trkpt>
      <trkpt lat="48.771200" lon="9.185037">
        <time>2026-07-29T10:00:58.000Z</time>
        <speed>0.00</speed>
        <course>90.0</course>
      </trkpt>
      <trkpt lat="48.771200" lon="9.185037">
        <time>2026-07-29T10:00:59.000Z</time>
        <speed>0.00</speed>
        <course>90.0</course>
      </trkpt>
      <trkpt lat="48.771200" lon="9.185037">
        <time>2026-07-29T10:01:00.000Z</time>
        <speed>0.00</speed>
        <course>90.0</course>
      </trkpt>
      <trkpt lat="48.771200" lon="9.185037">
        <time>2026-07-29T10:01:01.000Z</time>
        <speed>0.00</speed>
        <course>90.0</course>
      </trkpt>
      <trkpt lat="48.771200" lon="9.185037">
        <time>2026-07-29T10:01:02.000Z</time>
        <speed>0.00</speed>
        <course>90.0</course>
      </trkpt>
      <trkpt lat="48.771200" lon="9.185037">
        <time>2026-07-29T10:01:03.000Z</time>
        <speed>0.00</speed>
        <course>90.0</course>
      </trkpt>
      <trkpt lat="48.771200" lon="9.185037">
        <time>2026-07-29T10:01:04.000Z</time>
        <speed>0.00</speed>
        <course>90.0</course>
      </trkpt>
      <trkpt lat="48.771200" lon="9.185037">
        <time>2026-07-29T10:01:05.000Z</time>
        <speed>0.00</speed>
        <course>90.0</course>
      </trkpt>
      <trkpt lat="48.771200" lon="9.185037">
        <time>2026-07-29T10:01:06.000Z</time>
        <speed>0.00</speed>
        <course>90.0</course>
      </trkpt>
      <trkpt lat="48.771200" lon="9.185037">
        <time>2026-07-29T10:01:07.000Z</time>
        <speed>0.00</speed>
        <course>90.0</course>
      </trkpt>
      <trkpt lat="48.771200" lon="9.185037">
        <time>2026-07-29T10:01:08.000Z</time>
        <speed>0.00</speed>
        <course>90.0</course>
      </trkpt>
      <trkpt lat="48.771200" lon="9.185037">
        <time>2026-07-29T10:01:09.000Z</time>
        <speed>0.00</speed>
        <course>90.0</course>
      </trkpt>
      <trkpt lat="48.771200" lon="9.185037">
        <time>2026-07-29T10:01:10.000Z</time>
        <speed>0.00</speed>
        <course>90.0</course>
      </trkpt>
      <trkpt lat="48.771200" lon="9.185037">
        <time>2026-07-29T10:01:11.000Z</time>
        <speed>0.00</speed>
        <course>90.0</course>
      </trkpt>
      <trkpt lat="48.771200" lon="9.185037">
        <time>2026-07-29T10:01:12.000Z</time>
        <speed>0.00</speed>
        <course>90.0</course>
      </trkpt>
      <trkpt lat="48.771200" lon="9.185037">
        <time>2026-07-29T10:01:13.000Z</time>
        <speed>0.00</speed>
        <course>90.0</course>
      </trkpt>
      <trkpt lat="48.771200" lon="9.185037">
        <time>2026-07-29T10:01:14.000Z</time>
        <speed>0.00</speed>
        <course>90.0</course>
      </trkpt>
      <trkpt lat="48.771200" lon="9.185037">
        <time>2026-07-29T10:01:15.000Z</time>
        <speed>0.00</speed>
        <course>90.0</course>
      </trkpt>
      <trkpt lat="48.771200" lon="9.185037">
        <time>2026-07-29T10:01:16.000Z</time>
        <speed>0.00</speed>
        <course>90.0</course>
      </trkpt>
      <trkpt lat="48.771200" lon="9.185037">
        <time>2026-07-29T10:01:17.000Z</time>
        <speed>0.00</speed>
        <course>90.0</course>
      </trkpt>
      <trkpt lat="48.771200" lon="9.185037">
        <time>2026-07-29T10:01:18.000Z</time>
        <speed>0.00</speed>
        <course>90.0</course>
      </trkpt>
      <trkpt lat="48.771200" lon="9.185037">
        <time>2026-07-29T10:01:19.000Z</time>
        <speed>0.00</speed>
        <course>90.0</course>
      </trkpt>
      <trkpt lat="48.771200" lon="9.185037">
        <time>2026-07-29T10:01:20.000Z</time>
        <speed>0.00</speed>
        <course>90.0</course>
      </trkpt>
      <trkpt lat="48.771200" lon="9.185037">
        <time>2026-07-29T10:01:21.000Z</time>
        <speed>0.00</speed>
        <course>90.0</course>
      </trkpt>
      <trkpt lat="48.771200" lon="9.185037">
        <time>2026-07-29T10:01:22.000Z</time>
        <speed>0.00</speed>
        <course>90.0</course>
      </trkpt>
      <trkpt lat="48.771200" lon="9.185037">
        <time>2026-07-29T10:01:23.000Z</time>
        <speed>0.00</speed>
        <course>90.0</course>
      </trkpt>
      <trkpt lat="48.771200" lon="9.185037">
        <time>2026-07-29T10:01:24.000Z</time>
        <speed>0.00</speed>
        <course>90.0</course>
      </trkpt>
      <trkpt lat="48.771200" lon="9.185037">
        <time>2026-07-29T10:01:25.000Z</time>
        <speed>0.00</speed>
        <course>90.0</course>
      </trkpt>
      <trkpt lat="48.771200" lon="9.185037">
        <time>2026-07-29T10:01:26.000Z</time>
        <speed>0.00</speed>
        <course>90.0</course>
      </trkpt>
      <trkpt lat="48.771200" lon="9.185037">
        <time>2026-07-29T10:01:27.000Z</time>
        <speed>0.00</speed>
        <course>90.0</course>
      </trkpt>
      <trkpt lat="48.771200" lon="9.185037">
        <time>2026-07-29T10:01:28.000Z</time>
        <speed>0.00</speed>
        <course>90.0</course>
      </trkpt>
      <trkpt lat="48.771200" lon="9.185037">
        <time>2026-07-29T10:01:29.000Z</time>
        <speed>0.00</speed>
        <course>90.0</course>
      </trkpt>
      <trkpt lat="48.771200" lon="9.185037">
        <time>2026-07-29T10:01:30.000Z</time>
        <speed>0.00</speed>
        <course>90.0</course>
      </trkpt>
      <trkpt lat="48.771200" lon="9.185037">
        <time>2026-07-29T10:01:31.000Z</time>
        <speed>0.00</speed>
        <course>90.0</course>
      </trkpt>
      <trkpt lat="48.771200" lon="9.185037">
        <time>2026-07-29T10:01:32.000Z</time>
        <speed>0.00</speed>
        <course>90.0</course>
      </trkpt>
      <trkpt lat="48.771200" lon="9.185037">
        <time>2026-07-29T10:01:33.000Z</time>
        <speed>0.00</speed>
        <course>90.0</course>
      </trkpt>
      <trkpt lat="48.771200" lon="9.185037">
        <time>2026-07-29T10:01:34.000Z</time>
        <speed>0.00</speed>
        <course>90.0</course>
      </trkpt>
      <trkpt lat="48.771200" lon="9.185037">
        <time>2026-07-29T10:01:35.000Z</time>
        <speed>0.00</speed>
        <course>90.0</course>
      </trkpt>
      <trkpt lat="48.771200" lon="9.185037">
        <time>2026-07-29T10:01:36.000Z</time>
        <speed>0.00</speed>
        <course>90.0</course>
      </trkpt>
      <trkpt lat="48.771200" lon="9.185037">
        <time>2026-07-29T10:01:37.000Z</time>
        <speed>0.00</speed>
        <course>90.0</course>
      </trkpt>
      <trkpt lat="48.771200" lon="9.185037">
        <time>2026-07-29T10:01:38.000Z</time>
        <speed>0.00</speed>
        <course>90.0</course>
      </trkpt>
      <trkpt lat="48.771200" lon="9.185037">
        <time>2026-07-29T10:01:39.000Z</time>
        <speed>0.00</speed>
        <course>90.0</course>
      </trkpt>
      <trkpt lat="48.771200" lon="9.185037">
        <time>2026-07-29T10:01:40.000Z</time>
        <speed>0.00</speed>
        <course>90.0</course>
      </trkpt>
    </trkseg>
  </trk>
</gpx>
