<?xml version="1.0" encoding="UTF-8"?>
<!--
Zwei Anlagen 30 m hintereinander in Fahrtrichtung, 100 km/h — zu dicht — die zweite Ansage wird verschoben

Synthetisch erzeugt von src/replay/make-fixtures.ts — nicht von Hand ändern,
sondern den Generator anpassen und neu erzeugen.
-->
<gpx version="1.1" creator="static-blitzerwarner-fixtures">
  <trk>
    <trkseg>
      <trkpt lat="48.600000" lon="9.000000">
        <time>2026-07-29T10:00:00.000Z</time>
        <speed>27.80</speed>
        <course>90.0</course>
      </trkpt>
      <trkpt lat="48.600000" lon="9.000378">
        <time>2026-07-29T10:00:01.000Z</time>
        <speed>27.80</speed>
        <course>90.0</course>
      </trkpt>
      <trkpt lat="48.600000" lon="9.000756">
        <time>2026-07-29T10:00:02.000Z</time>
        <speed>27.80</speed>
        <course>90.0</course>
      </trkpt>
      <trkpt lat="48.600000" lon="9.001134">
        <time>2026-07-29T10:00:03.000Z</time>
        <speed>27.80</speed>
        <course>90.0</course>
      </trkpt>
      <trkpt lat="48.600000" lon="9.001512">
        <time>2026-07-29T10:00:04.000Z</time>
        <speed>27.80</speed>
        <course>90.0</course>
      </trkpt>
      <trkpt lat="48.600000" lon="9.001890">
        <time>2026-07-29T10:00:05.000Z</time>
        <speed>27.80</speed>
        <course>90.0</course>
      </trkpt>
      <trkpt lat="48.600000" lon="9.002268">
        <time>2026-07-29T10:00:06.000Z</time>
        <speed>27.80</speed>
        <course>90.0</course>
      </trkpt>
      <trkpt lat="48.600000" lon="9.002646">
        <time>2026-07-29T10:00:07.000Z</time>
        <speed>27.80</speed>
        <course>90.0</course>
      </trkpt>
      <trkpt lat="48.600000" lon="9.003024">
        <time>2026-07-29T10:00:08.000Z</time>
        <speed>27.80</speed>
        <course>90.0</course>
      </trkpt>
      <trkpt lat="48.600000" lon="9.003402">
        <time>2026-07-29T10:00:09.000Z</time>
        <speed>27.80</speed>
        <course>90.0</course>
      </trkpt>
      <trkpt lat="48.600000" lon="9.003781">
        <time>2026-07-29T10:00:10.000Z</time>
        <speed>27.80</speed>
        <course>90.0</course>
      </trkpt>
      <trkpt lat="48.600000" lon="9.004159">
        <time>2026-07-29T10:00:11.000Z</time>
        <speed>27.80</speed>
        <course>90.0</course>
      </trkpt>
      <trkpt lat="48.600000" lon="9.004537">
        <time>2026-07-29T10:00:12.000Z</time>
        <speed>27.80</speed>
        <course>90.0</course>
      </trkpt>
      <trkpt lat="48.600000" lon="9.004915">
        <time>2026-07-29T10:00:13.000Z</time>
        <speed>27.80</speed>
        <course>90.0</course>
      </trkpt>
      <trkpt lat="48.600000" lon="9.005293">
        <time>2026-07-29T10:00:14.000Z</time>
        <speed>27.80</speed>
        <course>90.0</course>
      </trkpt>
      <trkpt lat="48.600000" lon="9.005671">
        <time>2026-07-29T10:00:15.000Z</time>
        <speed>27.80</speed>
        <course>90.0</course>
      </trkpt>
      <trkpt lat="48.600000" lon="9.006049">
        <time>2026-07-29T10:00:16.000Z</time>
        <speed>27.80</speed>
        <course>90.0</course>
      </trkpt>
      <trkpt lat="48.600000" lon="9.006427">
        <time>2026-07-29T10:00:17.000Z</time>
        <speed>27.80</speed>
        <course>90.0</course>
      </trkpt>
      <trkpt lat="48.600000" lon="9.006805">
        <time>2026-07-29T10:00:18.000Z</time>
        <speed>27.80</speed>
        <course>90.0</course>
      </trkpt>
      <trkpt lat="48.600000" lon="9.007183">
        <time>2026-07-29T10:00:19.000Z</time>
        <speed>27.80</speed>
        <course>90.0</course>
      </trkpt>
      <trkpt lat="48.600000" lon="9.007561">
        <time>2026-07-29T10:00:20.000Z</time>
        <speed>27.80</speed>
        <course>90.0</course>
      </trkpt>
      <trkpt lat="48.600000" lon="9.007939">
        <time>2026-07-29T10:00:21.000Z</time>
        <speed>27.80</speed>
        <course>90.0</course>
      </trkpt>
      <trkpt lat="48.600000" lon="9.008317">
        <time>2026-07-29T10:00:22.000Z</time>
        <speed>27.80</speed>
        <course>90.0</course>
      </trkpt>
      <trkpt lat="48.600000" lon="9.008695">
        <time>2026-07-29T10:00:23.000Z</time>
        <speed>27.80</speed>
        <course>90.0</course>
      </trkpt>
      <trkpt lat="48.600000" lon="9.009073">
        <time>2026-07-29T10:00:24.000Z</time>
        <speed>27.80</speed>
        <course>90.0</course>
      </trkpt>
      <trkpt lat="48.600000" lon="9.009451">
        <time>2026-07-29T10:00:25.000Z</time>
        <speed>27.80</speed>
        <course>90.0</course>
      </trkpt>
      <trkpt lat="48.600000" lon="9.009829">
        <time>2026-07-29T10:00:26.000Z</time>
        <speed>27.80</speed>
        <course>90.0</course>
      </trkpt>
      <trkpt lat="48.600000" lon="9.010207">
        <time>2026-07-29T10:00:27.000Z</time>
        <speed>27.80</speed>
        <course>90.0</course>
      </trkpt>
      <trkpt lat="48.600000" lon="9.010586">
        <time>2026-07-29T10:00:28.000Z</time>
        <speed>27.80</speed>
        <course>90.0</course>
      </trkpt>
      <trkpt lat="48.599999" lon="9.010964">
        <time>2026-07-29T10:00:29.000Z</time>
        <speed>27.80</speed>
        <course>90.0</course>
      </trkpt>
      <trkpt lat="48.599999" lon="9.011342">
        <time>2026-07-29T10:00:30.000Z</time>
        <speed>27.80</speed>
        <course>90.0</course>
      </trkpt>
      <trkpt lat="48.599999" lon="9.011720">
        <time>2026-07-29T10:00:31.000Z</time>
        <speed>27.80</speed>
        <course>90.0</course>
      </trkpt>
      <trkpt lat="48.599999" lon="9.012098">
        <time>2026-07-29T10:00:32.000Z</time>
        <speed>27.80</speed>
        <course>90.0</course>
      </trkpt>
      <trkpt lat="48.599999" lon="9.012476">
        <time>2026-07-29T10:00:33.000Z</time>
        <speed>27.80</speed>
        <course>90.0</course>
      </trkpt>
      <trkpt lat="48.599999" lon="9.012854">
        <time>2026-07-29T10:00:34.000Z</time>
        <speed>27.80</speed>
        <course>90.0</course>
      </trkpt>
      <trkpt lat="48.599999" lon="9.013232">
        <time>2026-07-29T10:00:35.000Z</time>
        <speed>27.80</speed>
        <course>90.0</course>
      </trkpt>
      <trkpt lat="48.599999" lon="9.013610">
        <time>2026-07-29T10:00:36.000Z</time>
        <speed>27.80</speed>
        <course>90.0</course>
      </trkpt>
      <trkpt lat="48.599999" lon="9.013988">
        <time>2026-07-29T10:00:37.000Z</time>
        <speed>27.80</speed>
        <course>90.0</course>
      </trkpt>
      <trkpt lat="48.599999" lon="9.014366">
        <time>2026-07-29T10:00:38.000Z</time>
        <speed>27.80</speed>
        <course>90.0</course>
      </trkpt>
      <trkpt lat="48.599999" lon="9.014744">
        <time>2026-07-29T10:00:39.000Z</time>
        <speed>27.80</speed>
        <course>90.0</course>
      </trkpt>
      <trkpt lat="48.599999" lon="9.015122">
        <time>2026-07-29T10:00:40.000Z</time>
        <speed>27.80</speed>
        <course>90.0</course>
      </trkpt>
      <trkpt lat="48.599999" lon="9.015500">
        <time>2026-07-29T10:00:41.000Z</time>
        <speed>27.80</speed>
        <course>90.0</course>
      </trkpt>
      <trkpt lat="48.599999" lon="9.015878">
        <time>2026-07-29T10:00:42.000Z</time>
        <speed>27.80</speed>
        <course>90.0</course>
      </trkpt>
      <trkpt lat="48.599999" lon="9.016256">
        <time>2026-07-29T10:00:43.000Z</time>
        <speed>27.80</speed>
        <course>90.0</course>
      </trkpt>
      <trkpt lat="48.599999" lon="9.016634">
        <time>2026-07-29T10:00:44.000Z</time>
        <speed>27.80</speed>
        <course>90.0</course>
      </trkpt>
      <trkpt lat="48.599999" lon="9.017012">
        <time>2026-07-29T10:00:45.000Z</time>
        <speed>27.80</speed>
        <course>90.0</course>
      </trkpt>
      <trkpt lat="48.599999" lon="9.017390">
        <time>2026-07-29T10:00:46.000Z</time>
        <speed>27.80</speed>
        <course>90.0</course>
      </trkpt>
      <trkpt lat="48.599999" lon="9.017769">
        <time>2026-07-29T10:00:47.000Z</time>
        <speed>27.80</speed>
        <course>90.0</course>
      </trkpt>
      <trkpt lat="48.599999" lon="9.018147">
        <time>2026-07-29T10:00:48.000Z</time>
        <speed>27.80</speed>
        <course>90.0</course>
      </trkpt>
      <trkpt lat="48.599999" lon="9.018525">
        <time>2026-07-29T10:00:49.000Z</time>
        <speed>27.80</speed>
        <course>90.0</course>
      </trkpt>
      <trkpt lat="48.599998" lon="9.018903">
        <time>2026-07-29T10:00:50.000Z</time>
        <speed>27.80</speed>
        <course>90.0</course>
      </trkpt>
      <trkpt lat="48.599998" lon="9.019281">
        <time>2026-07-29T10:00:51.000Z</time>
        <speed>27.80</speed>
        <course>90.0</course>
      </trkpt>
      <trkpt lat="48.599998" lon="9.019659">
        <time>2026-07-29T10:00:52.000Z</time>
        <speed>27.80</speed>
        <course>90.0</course>
      </trkpt>
      <trkpt lat="48.599998" lon="9.020037">
        <time>2026-07-29T10:00:53.000Z</time>
        <speed>27.80</speed>
        <course>90.0</course>
      </trkpt>
      <trkpt lat="48.599998" lon="9.020415">
        <time>2026-07-29T10:00:54.000Z</time>
        <speed>27.80</speed>
        <course>90.0</course>
      </trkpt>
      <trkpt lat="48.599998" lon="9.020793">
        <time>2026-07-29T10:00:55.000Z</time>
        <speed>27.80</speed>
        <course>90.0</course>
      </trkpt>
      <trkpt lat="48.599998" lon="9.021171">
        <time>2026-07-29T10:00:56.000Z</time>
        <speed>27.80</speed>
        <course>90.0</course>
      </trkpt>
      <trkpt lat="48.599998" lon="9.021549">
        <time>2026-07-29T10:00:57.000Z</time>
        <speed>27.80</speed>
        <course>90.0</course>
      </trkpt>
      <trkpt lat="48.599998" lon="9.021927">
        <time>2026-07-29T10:00:58.000Z</time>
        <speed>27.80</speed>
        <course>90.0</course>
      </trkpt>
      <trkpt lat="48.599998" lon="9.022305">
        <time>2026-07-29T10:00:59.000Z</time>
        <speed>27.80</speed>
        <course>90.0</course>
      </trkpt>
      <trkpt lat="48.599998" lon="9.022683">
        <time>2026-07-29T10:01:00.000Z</time>
        <speed>27.80</speed>
        <course>90.0</course>
      </trkpt>
    </trkseg>
  </trk>
</gpx>
